{
  "norad_id": 65713,
  "name": "GEESAT-6 01",
  "history": [
    {
      "epoch": "2026-03-28T22:48:50.680512",
      "apogee_km": 627.8166199920443,
      "perigee_km": 610.6696798822268,
      "latitude_deg": -14.329617055417911,
      "longitude_deg": 122.556311680004,
      "semi_major_axis_km": 6997.380149937136,
      "eccentricity": 0.00122524,
      "inclination_deg": 49.9872,
      "raan_deg": 320.2566,
      "arg_perigee_deg": 283.9753,
      "mean_anomaly_deg": 75.9822,
      "mean_motion_rev_day": 14.83199461
    },
    {
      "epoch": "2026-03-29T03:39:53.804448",
      "apogee_km": 627.8037463796345,
      "perigee_km": 610.6657834530006,
      "latitude_deg": 18.683417081899137,
      "longitude_deg": 141.95978271984495,
      "semi_major_axis_km": 6997.371764916317,
      "eccentricity": 0.0012246,
      "inclination_deg": 49.9872,
      "raan_deg": 319.3203,
      "arg_perigee_deg": 284.7175,
      "mean_anomaly_deg": 75.2405,
      "mean_motion_rev_day": 14.83202127
    }
  ]
}